ONEWEB-0102             
1 47258U 20100A   24208.73098694 -.00000592  00000+0 -16821-2 0  9998
2 47258  87.8957 128.1887 0001866  79.4438 280.6901 13.12442856174164
ONEWEB-0109             
1 47259U 20100B   24209.27275246 -.00000283  00000+0 -82254-3 0  9990
2 47259  87.8955 128.0464 0001839  79.0990 281.0346 13.12441755174066
ONEWEB-0110             
1 47260U 20100C   24208.53634760  .00000435  00000+0  11730-2 0  9997
2 47260  87.8948 128.1961 0001860  74.4919 285.6414 13.12445100174139
ONEWEB-0111             
1 47261U 20100D   24208.49092004 -.00000258  00000+0 -75393-3 0  9993
2 47261  87.8956 128.2030 0001948  77.8428 282.2919 13.12440689173966
ONEWEB-0114             
1 47262U 20100E   24208.52174792  .00000082  00000+0  19203-3 0  9994
2 47262  87.8949 128.2107 0001683  87.4957 272.6364 13.12444807173923
ONEWEB-0117             
1 47263U 20100F   24209.19976863 -.00000409  00000+0 -11727-2 0  9995
2 47263  87.8956 128.0531 0002034  76.6432 283.4923 13.12443571174020
ONEWEB-0118             
1 47264U 20100G   24209.30845265  .00000486  00000+0  13143-2 0  9997
2 47264  87.8953 128.0351 0002092  89.9437 270.1931 13.12444396174235
ONEWEB-0119             
1 47265U 20100H   24208.72612477 -.00000335  00000+0 -96629-3 0  9996
2 47265  87.8954 128.1893 0001921  76.0373 284.0969 13.12443033174136
